{"type": "FeatureCollection", "features": [ {"type": "Feature", "properties": {"norad_id": 66958, "name": "CZ-6A R/B", "group": "last-30-days", "lat": 48.689194704911216, "lon": 161.19140559513303, "alt_km": 843.8110830119294, "timestamp": "2025-12-15T04:01:19.182791+00:00", "meta": {"OBJECT_NAME": "CZ-6A R/B", "OBJECT_ID": "2025-287F", "EPOCH": "2025-12-14T01:34:52.089024", "MEAN_MOTION": 13.94919786, "ECCENTRICITY": 0.01072604, "INCLINATION": 86.5059, "RA_OF_ASC_NODE": 345.5964, "ARG_OF_PERICENTER": 98.1704, "MEAN_ANOMALY": 263.1653, "EPHEMERIS_TYPE": 0, "CLASSIFICATION_TYPE": "U", "NORAD_CAT_ID": 66958, "ELEMENT_SET_NO": 999, "REV_AT_EPOCH": 72, "BSTAR": 0.00015279003, "MEAN_MOTION_DOT": 2.34e-06, "MEAN_MOTION_DDOT": 0}, "tle": {"line1": "1 66958U 25287F   25348.06588066  .00000234  00000+0  15279-3 0  9994", "line2": "2 66958  86.5059 345.5964 0107260  98.1704 263.1653 13.94919786   722"}}, "geometry": {"type": "Point", "coordinates": [161.19140559513303, 48.689194704911216]}}, {"type": "Feature", "properties": {"norad_id": 66988, "name": "YAOGAN-47", "group": "last-30-days", "lat": -21.37769345877535, "lon": 57.260848606511, "alt_km": 501.62887336471795, "timestamp": "2025-12-15T04:01:19.182801+00:00", "meta": {"OBJECT_NAME": "YAOGAN-47", "OBJECT_ID": "2025-289A", "EPOCH": "2025-12-11T14:58:29.248032", "MEAN_MOTION": 15.23120362, "ECCENTRICITY": 8.584e-05, "INCLINATION": 97.5268, "RA_OF_ASC_NODE": 50.7421, "ARG_OF_PERICENTER": 73.685, "MEAN_ANOMALY": 286.448, "EPHEMERIS_TYPE": 0, "CLASSIFICATION_TYPE": "U", "NORAD_CAT_ID": 66988, "ELEMENT_SET_NO": 999, "REV_AT_EPOCH": 37, "BSTAR": 0.00024920475, "MEAN_MOTION_DOT": 5.809e-05, "MEAN_MOTION_DDOT": 0}, "tle": {"line1": "1 66988U 25289A   25345.62394963  .00005809  00000+0  24920-3 0  9995", "line2": "2 66988  97.5268  50.7421 0000858  73.6850 286.4480 15.23120362   372"}}, "geometry": {"type": "Point", "coordinates": [57.260848606511, -21.37769345877535]}}, {"type": "Feature", "properties": {"norad_id": 66989, "name": "CZ-4B R/B", "group": "last-30-days", "lat": 4.251911273918162, "lon": -124.75077896265559, "alt_km": 466.8091790332901, "timestamp": "2025-12-15T04:01:19.182814+00:00", "meta": {"OBJECT_NAME": "CZ-4B R/B", "OBJECT_ID": "2025-289B", "EPOCH": "2025-12-14T04:17:48.328512", "MEAN_MOTION": 15.67612238, "ECCENTRICITY": 0.01479933, "INCLINATION": 97.5271, "RA_OF_ASC_NODE": 53.6256, "ARG_OF_PERICENTER": 357.4956, "MEAN_ANOMALY": 2.5546, "EPHEMERIS_TYPE": 0, "CLASSIFICATION_TYPE": "U", "NORAD_CAT_ID": 66989, "ELEMENT_SET_NO": 999, "REV_AT_EPOCH": 79, "BSTAR": 0.00069788883, "MEAN_MOTION_DOT": 0.00140877, "MEAN_MOTION_DDOT": 7.835031e-06}, "tle": {"line1": "1 66989U 25289B   25348.17903158  .00140877  78350-5  69789-3 0  9997", "line2": "2 66989  97.5271  53.6256 0147993 357.4956   2.5546 15.67612238   799"}}, "geometry": {"type": "Point", "coordinates": [-124.75077896265559, 4.251911273918162]}}, {"type": "Feature", "properties": {"norad_id": 66990, "name": "TJS-22", "group": "last-30-days", "lat": 12.51766640995416, "lon": 82.68494865704805, "alt_km": 3026.6723881538337, "timestamp": "2025-12-15T04:01:19.182826+00:00", "meta": {"OBJECT_NAME": "TJS-22", "OBJECT_ID": "2025-290A", "EPOCH": "2025-12-10T07:11:32.845344", "MEAN_MOTION": 2.15443148, "ECCENTRICITY": 0.6664534, "INCLINATION": 20.1261, "RA_OF_ASC_NODE": 301.1464, "ARG_OF_PERICENTER": 180.6877, "MEAN_ANOMALY": 177.6237, "EPHEMERIS_TYPE": 0, "CLASSIFICATION_TYPE": "U", "NORAD_CAT_ID": 66990, "ELEMENT_SET_NO": 999, "REV_AT_EPOCH": 3, "BSTAR": 0.079788243, "MEAN_MOTION_DOT": -3.8e-07, "MEAN_MOTION_DDOT": 0}, "tle": {"line1": "1 66990U 25290A   25344.29968571 -.00000038  00000+0  79788-1 0  9994", "line2": "2 66990  20.1261 301.1464 6664534 180.6877 177.6237  2.15443148    32"}}, "geometry": {"type": "Point", "coordinates": [82.68494865704805, 12.51766640995416]}}, {"type": "Feature", "properties": {"norad_id": 66991, "name": "CZ-3B R/B", "group": "last-30-days", "lat": -19.07381174706337, "lon": -98.94466752279028, "alt_km": 16443.920961267508, "timestamp": "2025-12-15T04:01:19.182837+00:00", "meta": {"OBJECT_NAME": "CZ-3B R/B", "OBJECT_ID": "2025-290B", "EPOCH": "2025-12-10T06:44:55.577184", "MEAN_MOTION": 2.37676924, "ECCENTRICITY": 0.72420555, "INCLINATION": 28.4645, "RA_OF_ASC_NODE": 302.5976, "ARG_OF_PERICENTER": 179.3847, "MEAN_ANOMALY": 182.8677, "EPHEMERIS_TYPE": 0, "CLASSIFICATION_TYPE": "U", "NORAD_CAT_ID": 66991, "ELEMENT_SET_NO": 999, "REV_AT_EPOCH": 3, "BSTAR": 0.00043781284, "MEAN_MOTION_DOT": 0.00018897, "MEAN_MOTION_DDOT": 4.56211e-07}, "tle": {"line1": "1 66991U 25290B   25344.28119881  .00018897  45621-6  43781-3 0  9998", "line2": "2 66991  28.4645 302.5976 7242055 179.3847 182.8677  2.37676924    36"}}, "geometry": {"type": "Point", "coordinates": [-98.94466752279028, -19.07381174706337]}}, {"type": "Feature", "properties": {"norad_id": 66993, "name": "2025-292A", "group": "last-30-days", "lat": 2.2004371212447618, "lon": -118.00869211189054, "alt_km": 555.1472475473274, "timestamp": "2025-12-15T04:01:19.182848+00:00", "meta": {"OBJECT_NAME": "2025-292A", "OBJECT_ID": "2025-292A", "EPOCH": "2025-12-14T19:15:08.701056", "MEAN_MOTION": 15.0451049, "ECCENTRICITY": 0.0013805, "INCLINATION": 97.6536, "RA_OF_ASC_NODE": 61.3334, "ARG_OF_PERICENTER": 265.2483, "MEAN_ANOMALY": 94.7166, "EPHEMERIS_TYPE": 0, "CLASSIFICATION_TYPE": "U", "NORAD_CAT_ID": 66993, "ELEMENT_SET_NO": 999, "REV_AT_EPOCH": 70, "BSTAR": 0.00030181, "MEAN_MOTION_DOT": 4.173e-05, "MEAN_MOTION_DDOT": 0}, "tle": {"line1": "1 66993U 25292A   25348.80218404  .00004173  00000+0  30181-3 0  9992", "line2": "2 66993  97.6536  61.3334 0013805 265.2483  94.7166 15.04510490   707"}}, "geometry": {"type": "Point", "coordinates": [-118.00869211189054, 2.2004371212447618]}}, {"type": "Feature", "properties": {"norad_id": 66994, "name": "2025-292B", "group": "last-30-days", "lat": 1.3819586365003815, "lon": -118.11808500995312, "alt_km": 555.0795636879366, "timestamp": "2025-12-15T04:01:19.182858+00:00", "meta": {"OBJECT_NAME": "2025-292B", "OBJECT_ID": "2025-292B", "EPOCH": "2025-12-14T16:03:24.384672", "MEAN_MOTION": 15.04559991, "ECCENTRICITY": 0.0013614, "INCLINATION": 97.6545, "RA_OF_ASC_NODE": 61.2022, "ARG_OF_PERICENTER": 266.3547, "MEAN_ANOMALY": 93.6122, "EPHEMERIS_TYPE": 0, "CLASSIFICATION_TYPE": "U", "NORAD_CAT_ID": 66994, "ELEMENT_SET_NO": 999, "REV_AT_EPOCH": 68, "BSTAR": 0.00036288, "MEAN_MOTION_DOT": 5.037e-05, "MEAN_MOTION_DDOT": 0}, "tle": {"line1": "1 66994U 25292B   25348.66903223  .00005037  00000+0  36288-3 0  9991", "line2": "2 66994  97.6545  61.2022 0013614 266.3547  93.6122 15.04559991   688"}}, "geometry": {"type": "Point", "coordinates": [-118.11808500995312, 1.3819586365003815]}}, {"type": "Feature", "properties": {"norad_id": 66995, "name": "2025-292C", "group": "last-30-days", "lat": 1.3408086819059812, "lon": -118.12414676625482, "alt_km": 555.0910987162451, "timestamp": "2025-12-15T04:01:19.182871+00:00", "meta": {"OBJECT_NAME": "2025-292C", "OBJECT_ID": "2025-292C", "EPOCH": "2025-12-14T19:14:55.917312", "MEAN_MOTION": 15.04564282, "ECCENTRICITY": 0.0014041, "INCLINATION": 97.6533, "RA_OF_ASC_NODE": 61.3335, "ARG_OF_PERICENTER": 266.1758, "MEAN_ANOMALY": 93.7862, "EPHEMERIS_TYPE": 0, "CLASSIFICATION_TYPE": "U", "NORAD_CAT_ID": 66995, "ELEMENT_SET_NO": 999, "REV_AT_EPOCH": 70, "BSTAR": 0.00047431, "MEAN_MOTION_DOT": 6.606e-05, "MEAN_MOTION_DDOT": 0}, "tle": {"line1": "1 66995U 25292C   25348.80203608  .00006606  00000+0  47431-3 0  9993", "line2": "2 66995  97.6533  61.3335 0014041 266.1758  93.7862 15.04564282   705"}}, "geometry": {"type": "Point", "coordinates": [-118.12414676625482, 1.3408086819059812]}}, {"type": "Feature", "properties": {"norad_id": 66996, "name": "2025-292D", "group": "last-30-days", "lat": 0.35953178524397866, "lon": -118.25588546873044, "alt_km": 555.4263645265391, "timestamp": "2025-12-15T04:01:19.182881+00:00", "meta": {"OBJECT_NAME": "2025-292D", "OBJECT_ID": "2025-292D", "EPOCH": "2025-12-14T12:51:37.507392", "MEAN_MOTION": 15.04609236, "ECCENTRICITY": 0.0013218, "INCLINATION": 97.6531, "RA_OF_ASC_NODE": 61.0701, "ARG_OF_PERICENTER": 269.9152, "MEAN_ANOMALY": 90.056, "EPHEMERIS_TYPE": 0, "CLASSIFICATION_TYPE": "U", "NORAD_CAT_ID": 66996, "ELEMENT_SET_NO": 999, "REV_AT_EPOCH": 66, "BSTAR": 6.6608e-05, "MEAN_MOTION_DOT": 8.74e-06, "MEAN_MOTION_DDOT": 0}, "tle": {"line1": "1 66996U 25292D   25348.53585078  .00000874  00000+0  66608-4 0  9997", "line2": "2 66996  97.6531  61.0701 0013218 269.9152  90.0560 15.04609236   661"}}, "geometry": {"type": "Point", "coordinates": [-118.25588546873044, 0.35953178524397866]}}, {"type": "Feature", "properties": {"norad_id": 66997, "name": "2025-292E", "group": "last-30-days", "lat": -1.0275737780551613, "lon": -118.44049909279413, "alt_km": 555.2337063859168, "timestamp": "2025-12-15T04:01:19.182891+00:00", "meta": {"OBJECT_NAME": "2025-292E", "OBJECT_ID": "2025-292E", "EPOCH": "2025-12-14T14:27:03.560256", "MEAN_MOTION": 15.04688384, "ECCENTRICITY": 0.001358, "INCLINATION": 97.6547, "RA_OF_ASC_NODE": 61.1375, "ARG_OF_PERICENTER": 270.3465, "MEAN_ANOMALY": 89.6205, "EPHEMERIS_TYPE": 0, "CLASSIFICATION_TYPE": "U", "NORAD_CAT_ID": 66997, "ELEMENT_SET_NO": 999, "REV_AT_EPOCH": 66, "BSTAR": 6.5331e-05, "MEAN_MOTION_DOT": 8.58e-06, "MEAN_MOTION_DDOT": 0}, "tle": {"line1": "1 66997U 25292E   25348.60212454  .00000858  00000+0  65331-4 0  9995", "line2": "2 66997  97.6547  61.1375 0013580 270.3465  89.6205 15.04688384   663"}}, "geometry": {"type": "Point", "coordinates": [-118.44049909279413, -1.0275737780551613]}}]}